{
  "type": "FeatureCollection",
  "features": [
    {
      "type": "Feature",
      "properties": {
        "norad_id": 2807,
        "name": "OPS 7218 (TRANSIT 16)",
        "group": "nnss",
        "lat": 54.08497683601069,
        "lon": 173.84466629960232,
        "alt_km": 1048.8465028549654,
        "timestamp": "2025-12-04T07:39:36.404880+00:00",
        "meta_object_name": "OPS 7218 (TRANSIT 16)",
        "meta_object_id": "1967-048A",
        "meta_epoch": "2025-12-03T19:27:04.855104",
        "meta_mean_motion": 13.50719553,
        "meta_eccentricity": 0.00214887,
        "meta_inclination": 89.6735,
        "meta_ra_of_asc_node": 354.3125,
        "meta_arg_of_pericenter": 138.1192,
        "meta_mean_anomaly": 35.6579,
        "meta_ephemeris_type": 0,
        "meta_classification_type": "U",
        "meta_norad_cat_id": 2807,
        "meta_element_set_no": 999,
        "meta_rev_at_epoch": 88155,
        "meta_bstar": 0.00022787551,
        "meta_mean_motion_dot": 1.57e-06,
        "meta_mean_motion_ddot": 0,
        "tle_line1": "1 02807U 67048A   25337.81047286  .00000157  00000+0  22788-3 0  9990",
        "tle_line2": "2 02807  89.6735 354.3125 0021488 138.1192  35.6579 13.50719553881559"
      },
      "geometry": {
        "type": "Point",
        "coordinates": [
          173.84466629960232,
          54.08497683601069
        ]
      }
    },
    {
      "type": "Feature",
      "properties": {
        "norad_id": 2965,
        "name": "OPS 4947 (TRANSIT 17)",
        "group": "nnss",
        "lat": 72.497981271296,
        "lon": -157.30108381180293,
        "alt_km": 1082.8835080672497,
        "timestamp": "2025-12-04T07:39:36.404901+00:00",
        "meta_object_name": "OPS 4947 (TRANSIT 17)",
        "meta_object_id": "1967-092A",
        "meta_epoch": "2025-12-03T15:45:35.885376",
        "meta_mean_motion": 13.53450115,
        "meta_eccentricity": 0.00457844,
        "meta_inclination": 89.2506,
        "meta_ra_of_asc_node": 25.128,
        "meta_arg_of_pericenter": 261.8094,
        "meta_mean_anomaly": 219.8061,
        "meta_ephemeris_type": 0,
        "meta_classification_type": "U",
        "meta_norad_cat_id": 2965,
        "meta_element_set_no": 999,
        "meta_rev_at_epoch": 86974,
        "meta_bstar": 0.00024972431,
        "meta_mean_motion_dot": 1.8e-06,
        "meta_mean_motion_ddot": 0,
        "tle_line1": "1 02965U 67092A   25337.65666534  .00000180  00000+0  24972-3 0  9992",
        "tle_line2": "2 02965  89.2506  25.1280 0045784 261.8094 219.8061 13.53450115869749"
      },
      "geometry": {
        "type": "Point",
        "coordinates": [
          -157.30108381180293,
          72.497981271296
        ]
      }
    },
    {
      "type": "Feature",
      "properties": {
        "norad_id": 3133,
        "name": "OPS 7034 (TRANSIT 18)",
        "group": "nnss",
        "lat": -45.31331675473564,
        "lon": -86.35733719428121,
        "alt_km": 1101.1087658204387,
        "timestamp": "2025-12-04T07:39:36.404912+00:00",
        "meta_object_name": "OPS 7034 (TRANSIT 18)",
        "meta_object_id": "1968-012A",
        "meta_epoch": "2025-12-03T21:33:02.442816",
        "meta_mean_motion": 13.51562734,
        "meta_eccentricity": 0.00730348,
        "meta_inclination": 90.027,
        "meta_ra_of_asc_node": 273.6142,
        "meta_arg_of_pericenter": 194.8777,
        "meta_mean_anomaly": 230.8678,
        "meta_ephemeris_type": 0,
        "meta_classification_type": "U",
        "meta_norad_cat_id": 3133,
        "meta_element_set_no": 999,
        "meta_rev_at_epoch": 56799,
        "meta_bstar": 0.00021575464,
        "meta_mean_motion_dot": 1.52e-06,
        "meta_mean_motion_ddot": 0,
        "tle_line1": "1 03133U 68012A   25337.89794494  .00000152  00000+0  21575-3 0  9991",
        "tle_line2": "2 03133  90.0270 273.6142 0073034 194.8777 230.8678 13.51562734567992"
      },
      "geometry": {
        "type": "Point",
        "coordinates": [
          -86.35733719428121,
          -45.31331675473564
        ]
      }
    },
    {
      "type": "Feature",
      "properties": {
        "norad_id": 4507,
        "name": "NNSS 19 (TRANSIT 19)",
        "group": "nnss",
        "lat": -67.76763969430331,
        "lon": -125.45846389522211,
        "alt_km": 959.5168354169473,
        "timestamp": "2025-12-04T07:39:36.404923+00:00",
        "meta_object_name": "NNSS 19 (TRANSIT 19)",
        "meta_object_id": "1970-067A",
        "meta_epoch": "2025-12-03T17:46:03.771552",
        "meta_mean_motion": 13.5131129,
        "meta_eccentricity": 0.01711646,
        "meta_inclination": 90.0056,
        "meta_ra_of_asc_node": 234.5275,
        "meta_arg_of_pericenter": 319.6425,
        "meta_mean_anomaly": 39.2127,
        "meta_ephemeris_type": 0,
        "meta_classification_type": "U",
        "meta_norad_cat_id": 4507,
        "meta_element_set_no": 999,
        "meta_rev_at_epoch": 72100,
        "meta_bstar": 0.00028548296,
        "meta_mean_motion_dot": 2.11e-06,
        "meta_mean_motion_ddot": 0,
        "tle_line1": "1 04507U 70067A   25337.74032143  .00000211  00000+0  28548-3 0  9993",
        "tle_line2": "2 04507  90.0056 234.5275 0171164 319.6425  39.2127 13.51311290721006"
      },
      "geometry": {
        "type": "Point",
        "coordinates": [
          -125.45846389522211,
          -67.76763969430331
        ]
      }
    },
    {
      "type": "Feature",
      "properties": {
        "norad_id": 6909,
        "name": "NNSS 20 (TRANSIT 20)",
        "group": "nnss",
        "lat": 62.74459592269543,
        "lon": 74.90015524491218,
        "alt_km": 876.3515357500228,
        "timestamp": "2025-12-04T07:39:36.404933+00:00",
        "meta_object_name": "NNSS 20 (TRANSIT 20)",
        "meta_object_id": "1973-081A",
        "meta_epoch": "2025-12-03T18:50:37.207968",
        "meta_mean_motion": 13.71427987,
        "meta_eccentricity": 0.01564724,
        "meta_inclination": 89.8557,
        "meta_ra_of_asc_node": 255.1885,
        "meta_arg_of_pericenter": 104.8334,
        "meta_mean_anomaly": 257.022,
        "meta_ephemeris_type": 0,
        "meta_classification_type": "U",
        "meta_norad_cat_id": 6909,
        "meta_element_set_no": 999,
        "meta_rev_at_epoch": 80238,
        "meta_bstar": 0.00028938661,
        "meta_mean_motion_dot": 2.96e-06,
        "meta_mean_motion_ddot": 0,
        "tle_line1": "1 06909U 73081A   25337.78515287  .00000296  00000+0  28939-3 0  9996",
        "tle_line2": "2 06909  89.8557 255.1885 0156472 104.8334 257.0220 13.71427987802388"
      },
      "geometry": {
        "type": "Point",
        "coordinates": [
          74.90015524491218,
          62.74459592269543
        ]
      }
    },
    {
      "type": "Feature",
      "properties": {
        "norad_id": 10457,
        "name": "TRANSAT",
        "group": "nnss",
        "lat": 9.864164159547355,
        "lon": 78.95622857789995,
        "alt_km": 1094.42452589376,
        "timestamp": "2025-12-04T07:39:36.404943+00:00",
        "meta_object_name": "TRANSAT",
        "meta_object_id": "1977-106A",
        "meta_epoch": "2025-12-03T19:44:22.543296",
        "meta_mean_motion": 13.48941362,
        "meta_eccentricity": 0.00245874,
        "meta_inclination": 89.6482,
        "meta_ra_of_asc_node": 78.9126,
        "meta_arg_of_pericenter": 215.8171,
        "meta_mean_anomaly": 263.4628,
        "meta_ephemeris_type": 0,
        "meta_classification_type": "U",
        "meta_norad_cat_id": 10457,
        "meta_element_set_no": 999,
        "meta_rev_at_epoch": 36623,
        "meta_bstar": 0.00015959191,
        "meta_mean_motion_dot": 1.1e-06,
        "meta_mean_motion_ddot": 0,
        "tle_line1": "1 10457U 77106A   25337.82248314  .00000110  00000+0  15959-3 0  9993",
        "tle_line2": "2 10457  89.6482  78.9126 0024587 215.8171 263.4628 13.48941362366232"
      },
      "geometry": {
        "type": "Point",
        "coordinates": [
          78.95622857789995,
          9.864164159547355
        ]
      }
    },
    {
      "type": "Feature",
      "properties": {
        "norad_id": 12458,
        "name": "NOVA 1",
        "group": "nnss",
        "lat": -31.838890121572756,
        "lon": 91.4123769062232,
        "alt_km": 1189.074283536449,
        "timestamp": "2025-12-04T07:39:36.404953+00:00",
        "meta_object_name": "NOVA 1",
        "meta_object_id": "1981-044A",
        "meta_epoch": "2025-12-03T21:32:55.161888",
        "meta_mean_motion": 13.23276955,
        "meta_eccentricity": 0.0015609,
        "meta_inclination": 89.8522,
        "meta_ra_of_asc_node": 91.5102,
        "meta_arg_of_pericenter": 125.7622,
        "meta_mean_anomaly": 356.6957,
        "meta_ephemeris_type": 0,
        "meta_classification_type": "U",
        "meta_norad_cat_id": 12458,
        "meta_element_set_no": 999,
        "meta_rev_at_epoch": 15069,
        "meta_bstar": 0.00016146934,
        "meta_mean_motion_dot": 7.7e-07,
        "meta_mean_motion_ddot": 0,
        "tle_line1": "1 12458U 81044A   25337.89786067  .00000077  00000+0  16147-3 0  9993",
        "tle_line2": "2 12458  89.8522  91.5102 0015609 125.7622 356.6957 13.23276955150695"
      },
      "geometry": {
        "type": "Point",
        "coordinates": [
          91.4123769062232,
          -31.838890121572756
        ]
      }
    }
  ]
}